start=new Date('2022-06-13T00:00:00.000Z').valueOf();
sats=[{"NORAD_CAT_ID":"48377","EPHEMERIS_TYPE":"0","ECCENTRICITY":"0.00015130","LAUNCH_DATE":"2021-05-04","OBJECT_ID":"2021-038AA","PERIAPSIS":"546.169","TLE_LINE1":"1 48377U 21038AA  22163.85572068 -.00000241  00000-0  27299-5 0  9990","SEMIMAJOR_AXIS":"6925.352","REF_FRAME":"TEME","REV_AT_EPOCH":"6130","TIME_SYSTEM":"UTC","INCLINATION":"53.0544","OBJECT_NAME":"STARLINK-2499","RCS_SIZE":"LARGE","OBJECT_TYPE":"PAYLOAD","CLASSIFICATION_TYPE":"U","MEAN_MOTION_DOT":"-0.00000241","ARG_OF_PERICENTER":"68.3280","FILE":"3493781","MEAN_ELEMENT_THEORY":"SGP4","TLE_LINE2":"2 48377  53.0544   3.0884 0001513  68.3280 291.7870 15.06398785 61308","CENTER_NAME":"EARTH","MEAN_MOTION_DDOT":"0.0000000000000","BSTAR":"0.00000272990000","PERIOD":"95.592","MEAN_ANOMALY":"291.7870","RA_OF_ASC_NODE":"3.0884","APOAPSIS":"548.265","MEAN_MOTION":"15.06398785","GP_ID":"206013990","COUNTRY_CODE":"US","SITE":"AFETR","EPOCH":"2022-06-12T20:32:14.266752","ELEMENT_SET_NO":"999","DECAY_DATE":null},{"BSTAR":"0.00006967300000","PERIOD":"95.592","MEAN_ANOMALY":"295.8102","CENTER_NAME":"EARTH","MEAN_MOTION_DDOT":"0.0000000000000","TLE_LINE2":"2 48378  53.0560   3.1131 0001514  64.3043 295.8102 15.06398078 61305","FILE":"3493781","MEAN_ELEMENT_THEORY":"SGP4","MEAN_MOTION":"15.06398078","RA_OF_ASC_NODE":"3.1131","APOAPSIS":"548.268","SITE":"AFETR","GP_ID":"206015241","COUNTRY_CODE":"US","DECAY_DATE":null,"EPOCH":"2022-06-12T20:26:55.460256","ELEMENT_SET_NO":"999","ECCENTRICITY":"0.00015140","EPHEMERIS_TYPE":"0","NORAD_CAT_ID":"48378","SEMIMAJOR_AXIS":"6925.354","TLE_LINE1":"1 48378U 21038AB  22163.85203079  .00000756  00000-0  69673-4 0  9995","PERIAPSIS":"546.171","LAUNCH_DATE":"2021-05-04","OBJECT_ID":"2021-038AB","OBJECT_NAME":"STARLINK-2526","RCS_SIZE":"LARGE","INCLINATION":"53.0560","REF_FRAME":"TEME","TIME_SYSTEM":"UTC","REV_AT_EPOCH":"6130","MEAN_MOTION_DOT":"0.00000756","ARG_OF_PERICENTER":"64.3043","CLASSIFICATION_TYPE":"U","OBJECT_TYPE":"PAYLOAD"},{"INCLINATION":"53.0569","TIME_SYSTEM":"UTC","REV_AT_EPOCH":"6130","REF_FRAME":"TEME","RCS_SIZE":"LARGE","OBJECT_NAME":"STARLINK-2612","ARG_OF_PERICENTER":"74.1792","MEAN_MOTION_DOT":"-0.00000188","CLASSIFICATION_TYPE":"U","OBJECT_TYPE":"PAYLOAD","NORAD_CAT_ID":"48379","ECCENTRICITY":"0.00014920","EPHEMERIS_TYPE":"0","TLE_LINE1":"1 48379U 21038AC  22163.84835526 -.00000188  00000-0  62974-5 0  9991","PERIAPSIS":"546.196","LAUNCH_DATE":"2021-05-04","OBJECT_ID":"2021-038AC","SEMIMAJOR_AXIS":"6925.364","GP_ID":"206015487","COUNTRY_CODE":"US","SITE":"AFETR","EPOCH":"2022-06-12T20:21:37.894464","ELEMENT_SET_NO":"999","DECAY_DATE":null,"TLE_LINE2":"2 48379  53.0569   3.1311 0001492  74.1792 285.9361 15.06394988 61303","MEAN_ELEMENT_THEORY":"SGP4","FILE":"3493781","BSTAR":"0.00000629740000","PERIOD":"95.592","MEAN_ANOMALY":"285.9361","MEAN_MOTION_DDOT":"0.0000000000000","CENTER_NAME":"EARTH","APOAPSIS":"548.262","RA_OF_ASC_NODE":"3.1311","MEAN_MOTION":"15.06394988"},{"BSTAR":"0.00001425000000","PERIOD":"95.592","MEAN_ANOMALY":"306.2211","MEAN_MOTION_DDOT":"0.0000000000000","CENTER_NAME":"EARTH","TLE_LINE2":"2 48380  53.0554   3.0126 0001596  53.8926 306.2211 15.06400662 61308","MEAN_ELEMENT_THEORY":"SGP4","FILE":"3493781","MEAN_MOTION":"15.06400662","APOAPSIS":"548.317","RA_OF_ASC_NODE":"3.0126","SITE":"AFETR","COUNTRY_CODE":"US","GP_ID":"206014241","DECAY_DATE":null,"ELEMENT_SET_NO":"999","EPOCH":"2022-06-12T20:57:25.100352","ECCENTRICITY":"0.00015960","EPHEMERIS_TYPE":"0","NORAD_CAT_ID":"48380","SEMIMAJOR_AXIS":"6925.347","TLE_LINE1":"1 48380U 21038AD  22163.87320718 -.00000069  00000-0  14250-4 0  9999","LAUNCH_DATE":"2021-05-04","PERIAPSIS":"546.106","OBJECT_ID":"2021-038AD","RCS_SIZE":"LARGE","OBJECT_NAME":"STARLINK-2614","INCLINATION":"53.0554","TIME_SYSTEM":"UTC","REV_AT_EPOCH":"6130","REF_FRAME":"TEME","ARG_OF_PERICENTER":"53.8926","MEAN_MOTION_DOT":"-0.00000069","CLASSIFICATION_TYPE":"U","OBJECT_TYPE":"PAYLOAD"},{"LAUNCH_DATE":"2021-05-04","PERIAPSIS":"546.048","OBJECT_ID":"2021-038AE","TLE_LINE1":"1 48381U 21038AE  22163.84465619  .00000329  00000-0  41013-4 0  9992","SEMIMAJOR_AXIS":"6925.328","NORAD_CAT_ID":"48381","EPHEMERIS_TYPE":"0","ECCENTRICITY":"0.00016540","CLASSIFICATION_TYPE":"U","OBJECT_TYPE":"PAYLOAD","MEAN_MOTION_DOT":"0.00000329","ARG_OF_PERICENTER":"63.7265","REF_FRAME":"TEME","TIME_SYSTEM":"UTC","REV_AT_EPOCH":"6130","INCLINATION":"53.0565","OBJECT_NAME":"STARLINK-2630","RCS_SIZE":"LARGE","RA_OF_ASC_NODE":"3.1392","APOAPSIS":"548.339","MEAN_MOTION":"15.06406576","FILE":"3493781","MEAN_ELEMENT_THEORY":"SGP4","TLE_LINE2":"2 48381  53.0565   3.1392 0001654  63.7265 296.3894 15.06406576 61304","CENTER_NAME":"EARTH","MEAN_MOTION_DDOT":"0.0000000000000","PERIOD":"95.592","BSTAR":"0.00004101300000","MEAN_ANOMALY":"296.3894","ELEMENT_SET_NO":"999","EPOCH":"2022-06-12T20:16:18.294816","DECAY_DATE":null,"GP_ID":"206014491","COUNTRY_CODE":"US","SITE":"AFETR"},{"TLE_LINE2":"2 48382  53.0562   3.1682 0001886  55.9800 304.1368 15.06406596 61305","FILE":"3493781","MEAN_ELEMENT_THEORY":"SGP4","MEAN_ANOMALY":"304.1368","PERIOD":"95.592","BSTAR":"0.00014231000000","CENTER_NAME":"EARTH","MEAN_MOTION_DDOT":"0.0000000000000","RA_OF_ASC_NODE":"3.1682","APOAPSIS":"548.499","MEAN_MOTION":"15.06406596","COUNTRY_CODE":"US","GP_ID":"206014741","SITE":"AFETR","EPOCH":"2022-06-12T20:10:59.765664","ELEMENT_SET_NO":"999","DECAY_DATE":null,"NORAD_CAT_ID":"48382","ECCENTRICITY":"0.00018860","EPHEMERIS_TYPE":"0","TLE_LINE1":"1 48382U 21038AF  22163.84096951  .00001839  00000-0  14231-3 0  9990","OBJECT_ID":"2021-038AF","LAUNCH_DATE":"2021-05-04","PERIAPSIS":"545.887","SEMIMAJOR_AXIS":"6925.328","INCLINATION":"53.0562","REF_FRAME":"TEME","TIME_SYSTEM":"UTC","REV_AT_EPOCH":"6130","OBJECT_NAME":"STARLINK-2585","RCS_SIZE":"LARGE","MEAN_MOTION_DOT":"0.00001839","ARG_OF_PERICENTER":"55.9800","CLASSIFICATION_TYPE":"U","OBJECT_TYPE":"PAYLOAD"},{"RA_OF_ASC_NODE":"3.1791","APOAPSIS":"548.235","MEAN_MOTION":"15.06404967","TLE_LINE2":"2 48383  53.0556   3.1791 0001497  64.9982 295.1162 15.06404967 62525","FILE":"3493781","MEAN_ELEMENT_THEORY":"SGP4","PERIOD":"95.592","MEAN_ANOMALY":"295.1162","BSTAR":"0.00010026000000","CENTER_NAME":"EARTH","MEAN_MOTION_DDOT":"0.0000000000000","ELEMENT_SET_NO":"999","EPOCH":"2022-06-12T20:05:41.754048","DECAY_DATE":null,"GP_ID":"206014987","COUNTRY_CODE":"US","SITE":"AFETR","TLE_LINE1":"1 48383U 21038AG  22163.83728882  .00001212  00000-0  10026-3 0  9998","LAUNCH_DATE":"2021-05-04","PERIAPSIS":"546.162","OBJECT_ID":"2021-038AG","SEMIMAJOR_AXIS":"6925.333","NORAD_CAT_ID":"48383","ECCENTRICITY":"0.00014970","EPHEMERIS_TYPE":"0","MEAN_MOTION_DOT":"0.00001212","ARG_OF_PERICENTER":"64.9982","OBJECT_TYPE":"PAYLOAD","CLASSIFICATION_TYPE":"U","INCLINATION":"53.0556","REF_FRAME":"TEME","TIME_SYSTEM":"UTC","REV_AT_EPOCH":"6252","OBJECT_NAME":"STARLINK-2599","RCS_SIZE":"LARGE"},{"TLE_LINE1":"1 48384U 21038AH  22163.83360208  .00002077  00000-0  15826-3 0  9996","LAUNCH_DATE":"2021-05-04","PERIAPSIS":"546.027","OBJECT_ID":"2021-038AH","SEMIMAJOR_AXIS":"6925.323","NORAD_CAT_ID":"48384","ECCENTRICITY":"0.00016760","EPHEMERIS_TYPE":"0","ARG_OF_PERICENTER":"63.5064","MEAN_MOTION_DOT":"0.00002077","OBJECT_TYPE":"PAYLOAD","CLASSIFICATION_TYPE":"U","INCLINATION":"53.0561","TIME_SYSTEM":"UTC","REV_AT_EPOCH":"6252","REF_FRAME":"TEME","RCS_SIZE":"LARGE","OBJECT_NAME":"STARLINK-2601","APOAPSIS":"548.349","RA_OF_ASC_NODE":"3.1953","MEAN_MOTION":"15.06408375","TLE_LINE2":"2 48384  53.0561   3.1953 0001676  63.5064 296.6096 15.06408375 62526","MEAN_ELEMENT_THEORY":"SGP4","FILE":"3493781","PERIOD":"95.592","MEAN_ANOMALY":"296.6096","BSTAR":"0.00015826000000","MEAN_MOTION_DDOT":"0.0000000000000","CENTER_NAME":"EARTH","EPOCH":"2022-06-12T20:00:23.219712","ELEMENT_SET_NO":"999","DECAY_DATE":null,"GP_ID":"206013741","COUNTRY_CODE":"US","SITE":"AFETR"},{"ECCENTRICITY":"0.00017010","EPHEMERIS_TYPE":"0","NORAD_CAT_ID":"48385","SEMIMAJOR_AXIS":"6925.320","TLE_LINE1":"1 48385U 21038AJ  22163.82991646  .00007303  00000-0  50856-3 0  9991","PERIAPSIS":"546.007","LAUNCH_DATE":"2021-05-04","OBJECT_ID":"2021-038AJ","OBJECT_NAME":"STARLINK-2598","RCS_SIZE":"LARGE","INCLINATION":"53.0559","REF_FRAME":"TEME","TIME_SYSTEM":"UTC","REV_AT_EPOCH":"6252","MEAN_MOTION_DOT":"0.00007303","ARG_OF_PERICENTER":"61.4939","CLASSIFICATION_TYPE":"U","OBJECT_TYPE":"PAYLOAD","PERIOD":"95.592","MEAN_ANOMALY":"298.6221","BSTAR":"0.00050856000000","CENTER_NAME":"EARTH","MEAN_MOTION_DDOT":"0.0000000000000","TLE_LINE2":"2 48385  53.0559   3.2029 0001701  61.4939 298.6221 15.06409316 62524","FILE":"3493781","MEAN_ELEMENT_THEORY":"SGP4","MEAN_MOTION":"15.06409316","RA_OF_ASC_NODE":"3.2029","APOAPSIS":"548.363","SITE":"AFETR","COUNTRY_CODE":"US","GP_ID":"206013991","DECAY_DATE":null,"ELEMENT_SET_NO":"999","EPOCH":"2022-06-12T19:55:04.782144"},{"CLASSIFICATION_TYPE":"U","OBJECT_TYPE":"PAYLOAD","ARG_OF_PERICENTER":"59.9859","MEAN_MOTION_DOT":"0.00003025","REV_AT_EPOCH":"6136","TIME_SYSTEM":"UTC","REF_FRAME":"TEME","INCLINATION":"53.0558","RCS_SIZE":"LARGE","OBJECT_NAME":"STARLINK-2606","LAUNCH_DATE":"2021-05-04","PERIAPSIS":"546.111","OBJECT_ID":"2021-038AK","TLE_LINE1":"1 48386U 21038AK  22163.81747692  .00003025  00000-0  22182-3 0  9999","SEMIMAJOR_AXIS":"6925.315","NORAD_CAT_ID":"48386","EPHEMERIS_TYPE":"0","ECCENTRICITY":"0.00015450","EPOCH":"2022-06-12T19:37:10.005888","ELEMENT_SET_NO":"999","DECAY_DATE":null,"GP_ID":"206015242","COUNTRY_CODE":"US","SITE":"AFETR","APOAPSIS":"548.250","RA_OF_ASC_NODE":"358.2700","MEAN_MOTION":"15.06410791","MEAN_ELEMENT_THEORY":"SGP4","FILE":"3493781","TLE_LINE2":"2 48386  53.0558 358.2700 0001545  59.9859 300.1283 15.06410791 61369","MEAN_MOTION_DDOT":"0.0000000000000","CENTER_NAME":"EARTH","MEAN_ANOMALY":"300.1283","PERIOD":"95.591","BSTAR":"0.00022182000000"}];
